     2.11           N: GPS NAV DATA                         RINEX VERSION / TYPE
teqc  2019Feb25     NGS Web             20231110 19:33:07UTCPGM / RUN BY / DATE
Linux 2.4.21-27.ELsmp|Opteron|gcc|Linux 64|=+               COMMENT
teqc  2019Feb25     CORS-ADM Account    20231110 12:45:03UTCCOMMENT
     2.10           N: GPS NAV DATA                         COMMENT
rvacn.e(1404.07)                        2023-11-10T12:37 UTCCOMMENT
This file contains the validated broadcast navigation       COMMENT
messages from the following files:                          COMMENT
abmf3130.23n, abpo3130.23n, albh3130.23n, alic3130.23n,     COMMENT
areq3130.23n, badg3130.23n, bake3130.23n, bogt3130.23n,     COMMENT
brew3130.23n, cas13130.23n, cedu3130.23n, chum3130.23n,     COMMENT
chur3130.23n, coco3130.23n, cro13130.23n, daej3130.23n,     COMMENT
darw3130.23n, dav13130.23n, dgar3130.23n, drao3130.23n,     COMMENT
dubo3130.23n, faa13130.23n, fair3130.23n, falk3130.23n,     COMMENT
flin3130.23n, glps3130.23n, glsv3130.23n, gode3130.23n,     COMMENT
godz3130.23n, gold3130.23n, harb3130.23n, hlfx3130.23n,     COMMENT
hob23130.23n, hofn3130.23n, holb3130.23n, hrao3130.23n,     COMMENT
iisc3130.23n, invk3130.23n, irkj3130.23n, jplm3130.23n,     COMMENT
karr3130.23n, kat13130.23n, kiri3130.23n, kiru3130.23n,     COMMENT
kokb3130.23n, kokv3130.23n, kour3130.23n, laut3130.23n,     COMMENT
lmmf3130.23n, mac13130.23n, mal23130.23n, mana3130.23n,     COMMENT
mas13130.23n, mat13130.23n, mate3130.23n, maw13130.23n,     COMMENT
mbar3130.23n, mcm43130.23n, mdo13130.23n, mdvj3130.23n,     COMMENT
mkea3130.23n, mobs3130.23n, mtka3130.23n, nano3130.23n,     COMMENT
naur3130.23n, nico3130.23n, nium3130.23n, nnor3130.23n,     COMMENT
pert3130.23n, pie13130.23n, pohn3130.23n, pol23130.23n,     COMMENT
polv3130.23n, reun3130.23n, sant3130.23n, sch23130.23n,     COMMENT
stjo3130.23n, suth3130.23n, suwn3130.23n, sydn3130.23n,     COMMENT
tid13130.23n, tow23130.23n, twtf3130.23n, unbj3130.23n,     COMMENT
vill3130.23n, whit3130.23n, will3130.23n, yar23130.23n,     COMMENT
yarr3130.23n, yell3130.23n                                  COMMENT
    2.5150D-08 -7.4510D-09 -1.1920D-07  1.7880D-07          ION ALPHA
    1.3310D+05 -8.1920D+04  6.5540D+04 -3.9320D+05          ION BETA
    0.000000000000D+00 9.313225746150D-10    61440     2288 DELTA-UTC: A0,A1,T,W
                                                            END OF HEADER
29 23 11  9 22  0  0.0-6.102258339524D-04 0.000000000000D+00 0.000000000000D+00
    9.600000000000D+01-4.721875000000D+01 4.510187867428D-09-5.585058466846D-01
   -2.531334757805D-06 2.525090356357D-03 3.933906555176D-06 5.153686363220D+03
    4.248000000000D+05-1.862645149231D-09-1.602033304100D+00-5.587935447693D-08
    9.739341900283D-01 3.103437500000D+02 2.574252118814D+00-8.256415341411D-09
   -3.360854278785D-10 1.000000000000D+00 2.287000000000D+03 0.000000000000D+00
    2.800000000000D+00 0.000000000000D+00-9.778887033463D-09 9.600000000000D+01
    4.176180000000D+05 4.000000000000D+00
30 23 11  9 22  0  0.0-4.699416458607D-04 3.979039320257D-12 0.000000000000D+00
    5.300000000000D+01-1.406250000000D+00 4.918419157614D-09 2.870623488511D+00
   -3.725290298462D-09 6.584869464859D-03 1.233816146851D-05 5.153744951248D+03
    4.248000000000D+05-7.450580596924D-09 2.515901284701D+00-8.940696716309D-08
    9.355932093840D-01 1.299375000000D+02-2.552759265790D+00-8.026048602854D-09
   -8.428922527028D-11 1.000000000000D+00 2.287000000000D+03 0.000000000000D+00
    2.000000000000D+00 0.000000000000D+00 3.725290298462D-09 5.300000000000D+01
    4.222740000000D+05 4.000000000000D+00
31 23 11  9 22  0  0.0-2.255816943944D-04-3.410605131648D-13 0.000000000000D+00
    1.420000000000D+02-4.625000000000D+00 4.493758611655D-09 2.113295744553D+00
   -2.104789018631D-07 1.060175977182D-02 1.176260411739D-05 5.153655086517D+03
    4.248000000000D+05-2.514570951462D-07 2.532957031119D+00-8.381903171539D-08
    9.545178541285D-01 1.520000000000D+02 6.197491229243D-01-7.892828767999D-09
   -1.328626771209D-10 1.000000000000D+00 2.287000000000D+03 0.000000000000D+00
    2.800000000000D+00 0.000000000000D+00-1.303851604462D-08 1.420000000000D+02
    4.176180000000D+05 4.000000000000D+00
32 23 11  9 22  0  0.0-5.837744101882D-04-4.547473508865D-12 0.000000000000D+00
    5.900000000000D+01-3.859375000000D+01 4.860916762409D-09 2.527596400421D-01
   -2.080574631691D-06 7.097434019670D-03 5.217269062996D-06 5.153591823578D+03
    4.248000000000D+05-8.009374141693D-08 1.453841923380D+00 9.499490261078D-08
    9.601672985020D-01 2.806875000000D+02-2.222850278225D+00-8.407135905242D-09
   -1.646497154644D-10 1.000000000000D+00 2.287000000000D+03 0.000000000000D+00
    2.000000000000D+00 0.000000000000D+00 4.656612873077D-10 5.900000000000D+01
    4.176180000000D+05 4.000000000000D+00
28 23 11  9 22 44 32.0-4.268111661077D-05-8.299139153678D-12 0.000000000000D+00
    5.200000000000D+01-9.468750000000D+00 4.379825294447D-09 1.983136347669D+00
   -4.153698682785D-07 7.727851625532D-04 1.142174005508D-05 5.153786359787D+03
    4.274720000000D+05 9.313225746155D-09 2.476872197132D+00-9.313225746155D-09
    9.615649060665D-01 1.624687500000D+02 1.553824657205D+00-7.847826893491D-09
   -1.457203555520D-10 1.000000000000D+00 2.287000000000D+03 0.000000000000D+00
    2.000000000000D+00 0.000000000000D+00-9.778887033463D-09 5.200000000000D+01
    4.203180000000D+05 4.000000000000D+00
 7 23 11  9 23 59 44.0 1.761596649885D-05-1.000444171950D-11 0.000000000000D+00
    8.000000000000D+00 4.531250000000D+00 4.455185576362D-09-2.275777557144D+00
   -8.940696716309D-08 1.762825448532D-02 1.120567321777D-05 5.153709724426D+03
    4.319840000000D+05 2.048909664154D-07 2.512232289084D+00-8.009374141693D-08
    9.504606190713D-01 1.527812500000D+02-2.167077240357D+00-7.680677073887D-09
    2.857261873569D-11 1.000000000000D+00 2.287000000000D+03 0.000000000000D+00
    2.000000000000D+00 0.000000000000D+00-1.117587089539D-08 8.000000000000D+00
    4.282560000000D+05 4.000000000000D+00
24 23 11  9 23 59 44.0-3.674593754113D-04-9.094947017729D-12 0.000000000000D+00
    1.200000000000D+01-1.315625000000D+01 5.003779856087D-09-1.239477260289D+00
   -5.140900611877D-07 1.482658658642D-02 1.123361289501D-05 5.153631231308D+03
    4.319840000000D+05 3.408640623093D-07 2.418698712578D+00 1.713633537292D-07
    9.340100745486D-01 1.446875000000D+02 9.403608989031D-01-8.199270103939D-09
   -1.960795960737D-10 1.000000000000D+00 2.287000000000D+03 0.000000000000D+00
    2.000000000000D+00 0.000000000000D+00 2.328306436539D-09 1.200000000000D+01
    4.248180000000D+05 4.000000000000D+00
29 23 11  9 23 59 44.0-6.102262996137D-04 0.000000000000D+00 0.000000000000D+00
    0.000000000000D+00-4.768750000000D+01 4.546260798582D-09 4.893431672900D-01
   -2.624467015266D-06 2.525129006244D-03 3.900378942490D-06 5.153686435699D+03
    4.319840000000D+05 2.235174179077D-08-1.602092602022D+00-2.048909664154D-08
    9.739315670162D-01 3.101250000000D+02 2.574242510368D+00-8.286059433349D-09
   -3.575148919303D-10 1.000000000000D+00 2.287000000000D+03 0.000000000000D+00
    2.000000000000D+00 0.000000000000D+00-9.778887033463D-09 0.000000000000D+00
    4.260960000000D+05 4.000000000000D+00
31 23 11  9 23 59 44.0-2.255844883621D-04-3.410605131648D-13 0.000000000000D+00
    5.200000000000D+01-8.937500000000D+00 4.433041796842D-09-3.122024708175D+00
   -4.991888999939D-07 1.060236524791D-02 1.187436282635D-05 5.153654027939D+03
    4.319840000000D+05-6.891787052155D-08 2.532900975024D+00-1.378357410431D-07
    9.545176054325D-01 1.488437500000D+02 6.197424534808D-01-7.747108412447D-09
   -1.203621564241D-10 1.000000000000D+00 2.287000000000D+03 0.000000000000D+00
    2.000000000000D+00 0.000000000000D+00-1.303851604462D-08 5.200000000000D+01
    4.248180000000D+05 4.000000000000D+00
 1 23 11 10  0  0  0.0 1.632007770240D-04 0.000000000000D+00 0.000000000000D+00
    4.100000000000D+01-4.003125000000D+01 3.600149960697D-09-1.541411291133D+00
   -2.102926373482D-06 1.291318773292D-02 1.098401844501D-05 5.153633846283D+03
    4.320000000000D+05 3.147870302200D-07-6.108058292574D-01 5.215406417847D-08
    9.906176749967D-01 1.834375000000D+02 9.896173184478D-01-7.466739591103D-09
   -1.832219176426D-10 1.000000000000D+00 2.287000000000D+03 0.000000000000D+00
    2.000000000000D+00 6.300000000000D+01 5.122274160385D-09 4.100000000000D+01
    4.248180000000D+05 4.000000000000D+00
 2 23 11 10  0  0  0.0-5.310401320457D-04 5.002220859751D-12 0.000000000000D+00
    5.600000000000D+01-6.696875000000D+01 4.174816755018D-09 1.074442567874D+00
   -3.919005393982D-06 1.617743331008D-02 1.018308103085D-05 5.153737316132D+03
    4.320000000000D+05-3.539025783539D-08-7.130559807752D-01-3.650784492493D-07
    9.677036380208D-01 1.927812500000D+02-1.317060462501D+00-8.014262397626D-09
   -2.917978688382D-10 1.000000000000D+00 2.287000000000D+03 0.000000000000D+00
    2.000000000000D+00 0.000000000000D+00-1.769512891769D-08 5.600000000000D+01
    4.248180000000D+05 4.000000000000D+00
 3 23 11 10  0  0  0.0-2.465769648552D-05 2.489741746103D-11 0.000000000000D+00
    4.800000000000D+01 4.415625000000D+01 4.030167872669D-09-2.731814096942D+00
    2.451241016388D-06 5.076681845821D-03 7.456168532372D-06 5.153566408157D+03
    4.320000000000D+05 7.450580596924D-09 4.178018679477D-01 3.725290298462D-09
    9.816029733725D-01 2.465937500000D+02 1.117211487017D+00-7.762823352752D-09
    4.275178078327D-10 1.000000000000D+00 2.287000000000D+03 0.000000000000D+00
    2.000000000000D+00 0.000000000000D+00 1.862645149231D-09 4.800000000000D+01
    4.248180000000D+05 4.000000000000D+00
